[{"OBJECT_NAME":"STARLINK-31751","OBJECT_ID":"2024-076L","EPOCH":"2026-03-09T06:17:50.336160","MEAN_MOTION":15.27577347,"ECCENTRICITY":9.766e-5,"INCLINATION":43.0006,"RA_OF_ASC_NODE":11.7415,"ARG_OF_PERICENTER":263.6594,"MEAN_ANOMALY":96.4146,"EPHEMERIS_TYPE":0,"CLASSIFICATION_TYPE":"U","NORAD_CAT_ID":59574,"ELEMENT_SET_NO":999,"REV_AT_EPOCH":10643,"BSTAR":-7.98677e-5,"MEAN_MOTION_DOT":-2.459e-5,"MEAN_MOTION_DDOT":0},{"OBJECT_NAME":"OBJECT N","OBJECT_ID":"2019-093N","EPOCH":"2026-03-09T21:41:56.087232","MEAN_MOTION":15.29897693,"ECCENTRICITY":0.0006278,"INCLINATION":98.0505,"RA_OF_ASC_NODE":226.9456,"ARG_OF_PERICENTER":33.3806,"MEAN_ANOMALY":326.7828,"EPHEMERIS_TYPE":0,"CLASSIFICATION_TYPE":"U","NORAD_CAT_ID":44891,"ELEMENT_SET_NO":999,"REV_AT_EPOCH":33957,"BSTAR":0.0010567776,"MEAN_MOTION_DOT":0.00030617,"MEAN_MOTION_DDOT":0}]
